MAKERSAT 0              
1 43016U 17073D   26175.42911744  .00015733  00000+0  42578-3 0  9992
2 43016  97.4622  58.0052 0104847 246.7219 112.2959 15.32301022467578
SIRION PATHFINDER-2     
1 43759U 18099B   26176.70438003  .00005354  00000+0  29320-3 0  9997
2 43759  97.4252 225.5592 0007067 268.5971  91.4452 15.14618817413912
CORVUS BC4              
1 43767U 18099K   26176.65636383  .00005254  00000+0  30476-3 0  9994
2 43767  97.4067 219.3884 0007359 343.2365  16.8622 15.12557878413683
M2 PATHFINDER           
1 45727U 20037E   26176.49243845  .00002439  00000+0  17753-3 0  9991
2 45727  97.8138   7.8170 0012594 122.0421 238.2030 15.04704429326745
NETSAT-4                
1 46504U 20068U   26176.48520851  .00021779  00000+0  47719-3 0  9996
2 46504  97.8604 185.3934 0003196 293.5185  66.5726 15.44122705317059
NETSAT-3                
1 46505U 20068V   26176.82208615  .00021758  00000+0  49569-3 0  9998
2 46505  97.8653 183.9631 0003167 320.6779  39.4236 15.42959601317013
NETSAT-1                
1 46506U 20068W   26176.54621522  .00015327  00000+0  45609-3 0  9990
2 46506  97.8743 177.8976 0003995   5.0239 355.1042 15.34821083316589
NETSAT-2                
1 46507U 20068X   26176.83716844  .00025671  00000+0  52091-3 0  9991
2 46507  97.8615 185.7004 0002118 355.0491   5.0736 15.46351535317071
GREENCUBE (IO-117)      
1 53109U 22080E   26176.74430124 -.00000003  00000+0  00000+0 0  9999
2 53109  70.1444 295.2691 0008975 287.7502  72.2178  6.42583224 92615
SITRO-AIS 5 (KATYS)     
1 57176U 23091L   26176.83642075  .00014051  00000+0  49038-3 0  9995
2 57176  97.5063 240.8183 0012499  76.5887 283.6745 15.29642249165663
SITRO-AIS 6 (CHIRKIN)   
1 57192U 23091AC  26176.83539831  .00011837  00000+0  46065-3 0  9994
2 57192  97.5071 239.8904 0012916  79.8089 280.4605 15.26089500165609
SITRO-AIS 8 (ANOKHIN)   
1 57193U 23091AD  26176.83824101  .00016461  00000+0  52788-3 0  9999
2 57193  97.5060 242.4442 0011444  73.0772 287.1723 15.32354437165779
SITRO-AIS 7 (FARTUSHNIY)
1 57194U 23091AE  26176.84032350  .00011735  00000+0  46107-3 0  9995
2 57194  97.5069 239.7159 0012788  80.7587 279.5096 15.25773907165591
SITRO-AIS 10 (BURDAEV)  
1 57199U 23091AK  26176.83317251  .00022429  00000+0  58313-3 0  9999
2 57199  97.5085 247.5832 0006804  53.9146 306.2728 15.38921441166092
SITRO-AIS 9 (SHCHUKIN)  
1 57201U 23091AM  26176.86235551  .00022184  00000+0  58619-3 0  9995
2 57201  97.5083 247.3360 0007086  53.9073 306.2827 15.38421929166085
SITRO-AIS 12 (SMIRENNIY)
1 57204U 23091AQ  26176.85132324  .00021646  00000+0  56672-3 0  9990
2 57204  97.5096 247.7973 0006586  48.6896 311.4915 15.38714718166104
SITRO-AIS 11 (SHEFFER)  
1 57208U 23091AU  26176.86233289  .00022188  00000+0  57276-3 0  9990
2 57208  97.5094 248.0608 0006482  48.4966 311.6835 15.39144673166129
SITRO-AIS 25            
1 59066U 24039R   26176.88493126  .00002269  00000+0  17915-3 0  9991
2 59066  95.3909 241.0695 0142620 298.0121  60.6737 14.93552453126029
SITRO-AIS 26            
1 59067U 24039S   26176.88749363  .00002193  00000+0  17404-3 0  9998
2 59067  95.3910 240.9670 0142987 298.6040  60.0862 14.93346856126015
SITRO-AIS 27            
1 59068U 24039T   26176.85530306  .00003104  00000+0  24296-3 0  9991
2 59068  95.3911 241.2205 0141948 297.2713  61.4114 14.93767596126038
SITRO-AIS 28            
1 59071U 24039U   26176.83254623  .00002532  00000+0  19859-3 0  9991
2 59071  95.3910 241.2528 0141934 297.1855  61.4962 14.93800035126037
GRBBETA                 
1 60237U 24128C   26176.58232735  .00003506  00000+0  24540-3 0  9993
2 60237  61.9879 186.8103 0039565 136.4274 223.9956 15.06684768107535
OOV-CUBE (TUBSAT-30)    
1 60240U 24128F   26176.37277780  .00001619  00000+0  13378-3 0  9993
2 60240  61.9924 197.0293 0043615 135.5897 224.8705 15.02800403107349
ROBUSTA-3A (MEDITERRAN*)
1 60243U 24128J   26175.74162040  .00004361  00000+0  26285-3 0  9996
2 60243  61.9846 181.5272 0040316 129.6556 230.8108 15.11735460107569
LASARSAT                
1 62391U 24247Q   26176.56664088  .00037258  00000+0  72870-3 0  9996
2 62391  44.9730 215.1121 0007292  21.4252 338.6942 15.46829898 84613
CROCUBE                 
1 62394U 24247T   26175.39308509  .00030725  00000+0  56517-3 0  9994
2 62394  44.9701 218.9251 0007226  18.8099 341.3058 15.48681185 84464
FORESAIL-1 PRIME        
1 66778U 25276DS  26176.62767941  .00005785  00000+0  28143-3 0  9995
2 66778  97.4201 249.7440 0003944  86.1768 273.9917 15.18772814 31685
KNACKSAT-2              
1 67683U 98067XZ  26176.42038817  .00054321  00000+0  64307-3 0  9992
2 67683  51.6277 253.0425 0008709 252.4154 107.5888 15.60671397 21564
